OBJECT_NAME,OBJECT_ID,EPOCH,MEAN_MOTION,ECCENTRICITY,INCLINATION,RA_OF_ASC_NODE,ARG_OF_PERICENTER,MEAN_ANOMALY,EPHEMERIS_TYPE,CLASSIFICATION_TYPE,NORAD_CAT_ID,ELEMENT_SET_NO,REV_AT_EPOCH,BSTAR,MEAN_MOTION_DOT,MEAN_MOTION_DDOT
CUBEBUG-2 (LO-74),2013-066AA,2026-07-12T07:33:50.653440,14.93955186,.00559859,97.8909,142.4045,305.1332,54.4648,0,U,39440,999,68074,.17183435E-3,.1823E-4,0
FUNCUBE-1 (AO-73),2013-066AE,2026-07-11T21:54:09.783072,15.09793381,.0037972,97.8287,164.8814,118.2418,242.2652,0,U,39444,999,68339,.24262E-3,.3917E-4,0
UWE-3,2013-066AG,2026-07-12T09:54:42.311808,14.97187827,.00475098,97.8700,149.6617,234.2156,125.4645,0,U,39446,999,68135,.15387496E-3,.1756E-4,0
UNISAT-6,2014-033C,2026-07-12T09:53:48.557184,14.88359612,.00444079,97.7904,345.6857,347.0654,12.9420,0,U,40012,999,64991,.13315126E-3,.1198E-4,0
DUCHIFAT-1,2014-033M,2026-07-11T15:59:20.150016,15.70315468,.00019202,98.0458,255.3713,269.1618,90.9422,0,U,40021,999,65958,.7760435E-3,.95138E-3,0
QB50P1,2014-033R,2026-07-12T12:29:54.904704,15.18640557,.00102199,98.0964,206.4495,132.7489,227.4606,0,U,40025,999,65687,.25721199E-3,.5256E-4,0
LILACSAT-2,2015-049K,2026-07-12T13:10:09.022656,15.52293452,.00082485,97.4630,231.3641,149.2429,210.9308,0,U,40908,999,59968,.19485516E-3,.11762E-3,0
FOX-1A (AO-85),2015-058D,2026-07-12T10:30:06.709824,14.91077888,.01321369,64.7723,200.5056,46.8579,314.3491,0,U,40967,999,11733,.15568718E-3,.1646E-4,0
CAS-2T & KS-1Q,2016-066G,2026-07-12T04:09:30.210912,14.44766328,.03423985,98.3814,268.6236,53.9111,309.3277,0,U,41847,999,50840,.95448857E-4,.623E-5,0
RADFXSAT (FOX-1B),2017-073E,2026-07-12T14:32:33.929664,15.13039278,.01481204,97.4674,60.3031,240.5020,118.1370,0,U,43017,999,46923,.15082623E-3,.3412E-4,0
DIWATA-2B,2018-084H,2026-07-12T13:50:51.725184,15.00557430,.00129683,98.1219,30.8969,92.5451,267.7256,0,U,43678,999,42002,.10821975E-3,.1302E-4,0
ES'HAIL 2,2018-090A,2026-07-12T11:55:24.105792,1.00269609,.00021931,0.0283,47.2208,113.3498,334.4640,0,U,43700,999,2793,0,0,0
FOX-1CLIFF (AO-95),2018-099N,2026-07-12T02:39:13.856256,15.27232320,.00070528,97.4378,253.2714,252.7613,107.2854,0,U,43770,999,41702,.26835197E-3,.7092E-4,0
ITASAT,2018-099AE,2026-07-12T13:51:39.146688,15.19362010,.00107621,97.4019,244.5851,260.9227,99.0790,0,U,43786,999,41676,.17528579E-3,.3643E-4,0
JY1SAT (JO-97),2018-099AX,2026-07-11T16:29:36.040416,15.34443331,.00065178,97.4124,255.6172,168.9842,191.1545,0,U,43803,999,41738,.301087E-3,.9972E-4,0
UWE-4,2018-111E,2026-07-12T05:58:38.176608,15.47689372,.0005735,97.5842,122.8225,206.6658,153.4298,0,U,43880,999,41465,.39697E-3,.20464E-3,0
TIANYAN 01,2019-093C,2026-07-12T14:57:22.698432,14.86558614,.00137799,97.7526,265.2339,9.9275,350.2211,0,U,44881,999,35519,.77288823E-4,.632E-5,0
RS-44 & BREEZE-KM R/B,2019-096E,2026-07-12T11:48:37.282752,12.79748944,.02185547,82.5240,322.8900,85.2823,277.3199,0,U,44909,999,30558,-.65806452E-4,-.3E-7,0
SALSAT,2020-068K,2026-07-11T12:58:29.571456,15.30139435,.00088233,97.8855,197.0941,206.5203,153.5586,0,U,46495,999,31908,.15528118E-3,.4447E-4,0
XW-3 (CAS-9),2021-131B,2026-07-12T14:24:57.049920,14.41380603,.00047428,98.4986,285.8536,37.5926,322.5593,0,U,50466,999,23877,.10286851E-3,.289E-5,0
GREENCUBE (IO-117),2022-080E,2026-07-12T05:48:08.210016,6.42583320,.0009038,70.1417,289.5333,284.1760,75.7895,0,U,53109,999,9367,0,-.3E-7,0
UMKA 1 (RS40S),2023-091G,2026-07-12T13:18:33.602112,15.21103175,.0013287,97.5042,252.1565,38.2240,321.9935,0,U,57172,999,16786,.15408785E-3,.3363E-4,0
CUBESX-HSE 3 (RS42S),2023-091N,2026-07-12T14:08:57.310944,15.31843845,.00099362,97.5086,259.5064,11.3998,348.7467,0,U,57178,999,16831,.26917914E-3,.8209E-4,0
MONITOR-3 (RS58S),2023-091Q,2026-07-12T12:57:51.829344,15.28340128,.0011292,97.5077,257.1785,19.0437,341.1223,0,U,57180,999,16816,.23094521E-3,.6308E-4,0
MONITOR-4 (RS57S),2023-091S,2026-07-12T13:59:56.948928,15.28427053,.00112789,97.5071,257.1945,19.2011,340.9651,0,U,57182,999,16817,.23485325E-3,.6434E-4,0
MONITOR-2 (RS39S),2023-091U,2026-07-12T14:35:40.457760,15.19139983,.0011636,97.5063,251.7280,32.4587,327.7361,0,U,57184,999,16781,.1285005E-3,.2634E-4,0
SVYATOBOR 1 (RS60S),2023-091X,2026-07-12T14:51:09.356256,15.27036593,.00090061,97.5083,257.5814,13.7048,346.4433,0,U,57187,999,16819,.19911697E-3,.5212E-4,0
VIZARD-METEO (RS38S),2023-091Z,2026-07-12T14:42:16.172352,15.36821729,.00058846,97.5087,263.6196,350.4022,9.7109,0,U,57189,999,16859,.29384265E-3,.10499E-3,0
POLYTECH-UNIVERSE 3 (RS46S),2023-091AB,2026-07-12T13:35:01.751136,15.19351873,.00162795,97.5038,251.1903,46.3755,313.8826,0,U,57191,999,16780,.1484676E-3,.3078E-4,0
UTMN 2 (RS27S),2023-091AP,2026-07-12T14:14:32.904096,15.32662504,.00069825,97.5082,261.1750,359.9451,0.1789,0,U,57203,999,16843,.25956365E-3,.8113E-4,0
